{
  "type": "FeatureCollection",
  "features": [
    {
      "type": "Feature",
      "properties": {
        "norad_id": 28051,
        "name": "IRS-P6 (RESOURCESAT-1)",
        "group": "resource",
        "lat": -64.88627966680033,
        "lon": 179.4947031768727,
        "alt_km": 741.3092266287485,
        "timestamp": "2025-12-02T13:52:16.932143+00:00",
        "meta_object_name": "IRS-P6 (RESOURCESAT-1)",
        "meta_object_id": "2003-046A",
        "meta_epoch": "2025-12-02T06:39:35.219808",
        "meta_mean_motion": 14.36066552,
        "meta_eccentricity": 0.00635876,
        "meta_inclination": 98.2192,
        "meta_ra_of_asc_node": 17.1687,
        "meta_arg_of_pericenter": 212.2126,
        "meta_mean_anomaly": 280.9617,
        "meta_ephemeris_type": 0,
        "meta_classification_type": "U",
        "meta_norad_cat_id": 28051,
        "meta_element_set_no": 999,
        "meta_rev_at_epoch": 15226,
        "meta_bstar": 0.00011392215,
        "meta_mean_motion_dot": 2.98e-06,
        "meta_mean_motion_ddot": 0,
        "tle_line1": "1 28051U 03046A   25336.27749097  .00000298  00000+0  11392-3 0  9990",
        "tle_line2": "2 28051  98.2192  17.1687 0063587 212.2126 280.9617 14.36066552152261"
      },
      "geometry": {
        "type": "Point",
        "coordinates": [
          179.4947031768727,
          -64.88627966680033
        ]
      }
    },
    {
      "type": "Feature",
      "properties": {
        "norad_id": 28220,
        "name": "SHIYAN-1 (SY-1)",
        "group": "resource",
        "lat": 3.385234602176166,
        "lon": 37.049299282745935,
        "alt_km": 480.8375245749585,
        "timestamp": "2025-12-02T13:52:16.932154+00:00",
        "meta_object_name": "SHIYAN-1 (SY-1)",
        "meta_object_id": "2004-012A",
        "meta_epoch": "2025-12-02T04:25:28.936416",
        "meta_mean_motion": 15.27718454,
        "meta_eccentricity": 0.00063995,
        "meta_inclination": 97.8958,
        "meta_ra_of_asc_node": 37.103,
        "meta_arg_of_pericenter": 4.3117,
        "meta_mean_anomaly": 355.8175,
        "meta_ephemeris_type": 0,
        "meta_classification_type": "U",
        "meta_norad_cat_id": 28220,
        "meta_element_set_no": 999,
        "meta_rev_at_epoch": 18095,
        "meta_bstar": 0.00060612109,
        "meta_mean_motion_dot": 0.00016363,
        "meta_mean_motion_ddot": 0,
        "tle_line1": "1 28220U 04012A   25336.18436269  .00016363  00000+0  60612-3 0  9995",
        "tle_line2": "2 28220  97.8958  37.1030 0006399   4.3117 355.8175 15.27718454180950"
      },
      "geometry": {
        "type": "Point",
        "coordinates": [
          37.049299282745935,
          3.385234602176166
        ]
      }
    },
    {
      "type": "Feature",
      "properties": {
        "norad_id": 28376,
        "name": "AURA",
        "group": "resource",
        "lat": -35.269662388613106,
        "lon": -67.30328833340972,
        "alt_km": 696.9498979074588,
        "timestamp": "2025-12-02T13:52:16.932165+00:00",
        "meta_object_name": "AURA",
        "meta_object_id": "2004-026A",
        "meta_epoch": "2025-12-02T07:27:33.557184",
        "meta_mean_motion": 14.60906098,
        "meta_eccentricity": 0.00010742,
        "meta_inclination": 98.3169,
        "meta_ra_of_asc_node": 286.4901,
        "meta_arg_of_pericenter": 90.2752,
        "meta_mean_anomaly": 269.8572,
        "meta_ephemeris_type": 0,
        "meta_classification_type": "U",
        "meta_norad_cat_id": 28376,
        "meta_element_set_no": 999,
        "meta_rev_at_epoch": 13746,
        "meta_bstar": 0.00032394974,
        "meta_mean_motion_dot": 1.538e-05,
        "meta_mean_motion_ddot": 0,
        "tle_line1": "1 28376U 04026A   25336.31080506  .00001538  00000+0  32395-3 0  9991",
        "tle_line2": "2 28376  98.3169 286.4901 0001074  90.2752 269.8572 14.60906098137464"
      },
      "geometry": {
        "type": "Point",
        "coordinates": [
          -67.30328833340972,
          -35.269662388613106
        ]
      }
    },
    {
      "type": "Feature",
      "properties": {
        "norad_id": 28649,
        "name": "IRS-P5 (CARTOSAT-1)",
        "group": "resource",
        "lat": -2.349908865416838,
        "lon": -176.8696247669644,
        "alt_km": 601.021752526457,
        "timestamp": "2025-12-02T13:52:16.932176+00:00",
        "meta_object_name": "IRS-P5 (CARTOSAT-1)",
        "meta_object_id": "2005-017A",
        "meta_epoch": "2025-12-02T01:46:36.348384",
        "meta_mean_motion": 14.90343635,
        "meta_eccentricity": 0.00018344,
        "meta_inclination": 97.5508,
        "meta_ra_of_asc_node": 2.9606,
        "meta_arg_of_pericenter": 54.2083,
        "meta_mean_anomaly": 305.9306,
        "meta_ephemeris_type": 0,
        "meta_classification_type": "U",
        "meta_norad_cat_id": 28649,
        "meta_element_set_no": 999,
        "meta_rev_at_epoch": 11445,
        "meta_bstar": 0.00021173898,
        "meta_mean_motion_dot": 2.007e-05,
        "meta_mean_motion_ddot": 0,
        "tle_line1": "1 28649U 05017A   25336.07403181  .00002007  00000+0  21174-3 0  9991",
        "tle_line2": "2 28649  97.5508   2.9606 0001834  54.2083 305.9306 14.90343635114455"
      },
      "geometry": {
        "type": "Point",
        "coordinates": [
          -176.8696247669644,
          -2.349908865416838
        ]
      }
    },
    {
      "type": "Feature",
      "properties": {
        "norad_id": 28893,
        "name": "SINAH 1",
        "group": "resource",
        "lat": 59.05863248322166,
        "lon": 91.08460980844235,
        "alt_km": 677.8563971729354,
        "timestamp": "2025-12-02T13:52:16.932187+00:00",
        "meta_object_name": "SINAH 1",
        "meta_object_id": "2005-043D",
        "meta_epoch": "2025-12-02T07:02:08.917728",
        "meta_mean_motion": 14.63943082,
        "meta_eccentricity": 0.00147521,
        "meta_inclination": 98.2599,
        "meta_ra_of_asc_node": 104.8229,
        "meta_arg_of_pericenter": 168.4568,
        "meta_mean_anomaly": 191.6975,
        "meta_ephemeris_type": 0,
        "meta_classification_type": "U",
        "meta_norad_cat_id": 28893,
        "meta_element_set_no": 999,
        "meta_rev_at_epoch": 7171,
        "meta_bstar": 0.00014859238,
        "meta_mean_motion_dot": 7.3e-06,
        "meta_mean_motion_ddot": 0,
        "tle_line1": "1 28893U 05043D   25336.29315877  .00000730  00000+0  14859-3 0  9992",
        "tle_line2": "2 28893  98.2599 104.8229 0014752 168.4568 191.6975 14.63943082 71711"
      },
      "geometry": {
        "type": "Point",
        "coordinates": [
          91.08460980844235,
          59.05863248322166
        ]
      }
    },
    {
      "type": "Feature",
      "properties": {
        "norad_id": 29079,
        "name": "EROS B",
        "group": "resource",
        "lat": -66.67850584610706,
        "lon": 110.11638585581306,
        "alt_km": 381.47438453990617,
        "timestamp": "2025-12-02T13:52:16.932198+00:00",
        "meta_object_name": "EROS B",
        "meta_object_id": "2006-014A",
        "meta_epoch": "2025-12-02T06:29:04.934400",
        "meta_mean_motion": 15.64275278,
        "meta_eccentricity": 0.00025569,
        "meta_inclination": 97.3487,
        "meta_ra_of_asc_node": 92.3763,
        "meta_arg_of_pericenter": 232.2643,
        "meta_mean_anomaly": 127.8385,
        "meta_ephemeris_type": 0,
        "meta_classification_type": "U",
        "meta_norad_cat_id": 29079,
        "meta_element_set_no": 999,
        "meta_rev_at_epoch": 8916,
        "meta_bstar": 0.0016185474,
        "meta_mean_motion_dot": 0.00156805,
        "meta_mean_motion_ddot": 0,
        "tle_line1": "1 29079U 06014A   25336.27019600  .00156805  00000+0  16185-2 0  9999",
        "tle_line2": "2 29079  97.3487  92.3763 0002556 232.2643 127.8385 15.64275278 89162"
      },
      "geometry": {
        "type": "Point",
        "coordinates": [
          110.11638585581306,
          -66.67850584610706
        ]
      }
    },
    {
      "type": "Feature",
      "properties": {
        "norad_id": 29228,
        "name": "RESURS-DK 1",
        "group": "resource",
        "lat": 5.412602786473739,
        "lon": 130.0810590321643,
        "alt_km": 532.5499920359898,
        "timestamp": "2025-12-02T13:52:16.932209+00:00",
        "meta_object_name": "RESURS-DK 1",
        "meta_object_id": "2006-021A",
        "meta_epoch": "2025-12-02T04:19:11.373600",
        "meta_mean_motion": 15.12062414,
        "meta_eccentricity": 0.0007826,
        "meta_inclination": 69.9324,
        "meta_ra_of_asc_node": 129.124,
        "meta_arg_of_pericenter": 266.3432,
        "meta_mean_anomaly": 93.6839,
        "meta_ephemeris_type": 0,
        "meta_classification_type": "U",
        "meta_norad_cat_id": 29228,
        "meta_element_set_no": 999,
        "meta_rev_at_epoch": 7278,
        "meta_bstar": 0.00024471447,
        "meta_mean_motion_dot": 4.115e-05,
        "meta_mean_motion_ddot": 0,
        "tle_line1": "1 29228U 06021A   25336.17999275  .00004115  00000+0  24471-3 0  9991",
        "tle_line2": "2 29228  69.9324 129.1240 0007826 266.3432  93.6839 15.12062414 72784"
      },
      "geometry": {
        "type": "Point",
        "coordinates": [
          130.0810590321643,
          5.412602786473739
        ]
      }
    }
  ]
}